[{"OBJECT_NAME":"ONEWEB-0617","OBJECT_ID":"2023-004U","EPOCH":"2026-02-23T05:34:22.818720","MEAN_MOTION":13.11416375,"ECCENTRICITY":0.00021831,"INCLINATION":87.8843,"RA_OF_ASC_NODE":43.7271,"ARG_OF_PERICENTER":81.0708,"MEAN_ANOMALY":279.0667,"EPHEMERIS_TYPE":0,"CLASSIFICATION_TYPE":"U","NORAD_CAT_ID":55158,"ELEMENT_SET_NO":999,"REV_AT_EPOCH":15092,"BSTAR":-0.00096762732,"MEAN_MOTION_DOT":-3.3e-6,"MEAN_MOTION_DDOT":0},{"OBJECT_NAME":"ONEWEB-0618","OBJECT_ID":"2023-004V","EPOCH":"2026-02-23T04:47:54.207744","MEAN_MOTION":15.1175316,"ECCENTRICITY":0.00125636,"INCLINATION":86.9058,"RA_OF_ASC_NODE":223.8553,"ARG_OF_PERICENTER":7.5503,"MEAN_ANOMALY":352.5923,"EPHEMERIS_TYPE":0,"CLASSIFICATION_TYPE":"U","NORAD_CAT_ID":55159,"ELEMENT_SET_NO":999,"REV_AT_EPOCH":16503,"BSTAR":0.00038451332,"MEAN_MOTION_DOT":6.597e-5,"MEAN_MOTION_DDOT":0},{"OBJECT_NAME":"ONEWEB-0619","OBJECT_ID":"2023-004W","EPOCH":"2026-02-23T04:40:39.986400","MEAN_MOTION":13.17647986,"ECCENTRICITY":0.00016042,"INCLINATION":87.9133,"RA_OF_ASC_NODE":28.4777,"ARG_OF_PERICENTER":72.3251,"MEAN_ANOMALY":287.8055,"EPHEMERIS_TYPE":0,"CLASSIFICATION_TYPE":"U","NORAD_CAT_ID":55160,"ELEMENT_SET_NO":999,"REV_AT_EPOCH":15258,"BSTAR":0.00014669068,"MEAN_MOTION_DOT":7.0e-7,"MEAN_MOTION_DDOT":0},{"OBJECT_NAME":"ONEWEB-0620","OBJECT_ID":"2023-004X","EPOCH":"2026-02-23T05:27:04.088160","MEAN_MOTION":13.11417205,"ECCENTRICITY":0.00021798,"INCLINATION":87.8836,"RA_OF_ASC_NODE":43.7453,"ARG_OF_PERICENTER":88.6381,"MEAN_ANOMALY":271.4997,"EPHEMERIS_TYPE":0,"CLASSIFICATION_TYPE":"U","NORAD_CAT_ID":55161,"ELEMENT_SET_NO":999,"REV_AT_EPOCH":15089,"BSTAR":-0.0017288798,"MEAN_MOTION_DOT":-6.0e-6,"MEAN_MOTION_DDOT":0},{"OBJECT_NAME":"ONEWEB-0621","OBJECT_ID":"2023-004Y","EPOCH":"2026-02-23T06:06:09.807552","MEAN_MOTION":13.11417911,"ECCENTRICITY":0.00018593,"INCLINATION":87.8842,"RA_OF_ASC_NODE":43.7177,"ARG_OF_PERICENTER":78.7819,"MEAN_ANOMALY":281.3518,"EPHEMERIS_TYPE":0,"CLASSIFICATION_TYPE":"U","NORAD_CAT_ID":55162,"ELEMENT_SET_NO":999,"REV_AT_EPOCH":15087,"BSTAR":0.0012010024,"MEAN_MOTION_DOT":4.38e-6,"MEAN_MOTION_DDOT":0},{"OBJECT_NAME":"ONEWEB-0622","OBJECT_ID":"2023-004Z","EPOCH":"2026-02-23T06:13:29.251776","MEAN_MOTION":13.11416174,"ECCENTRICITY":0.00024542,"INCLINATION":87.8838,"RA_OF_ASC_NODE":43.7198,"ARG_OF_PERICENTER":73.2292,"MEAN_ANOMALY":286.9105,"EPHEMERIS_TYPE":0,"CLASSIFICATION_TYPE":"U","NORAD_CAT_ID":55163,"ELEMENT_SET_NO":999,"REV_AT_EPOCH":15086,"BSTAR":0.0014157378,"MEAN_MOTION_DOT":5.14e-6,"MEAN_MOTION_DDOT":0},{"OBJECT_NAME":"ONEWEB-0623","OBJECT_ID":"2023-004AA","EPOCH":"2026-02-23T04:33:22.785120","MEAN_MOTION":13.17647552,"ECCENTRICITY":0.0002092,"INCLINATION":87.9119,"RA_OF_ASC_NODE":28.522,"ARG_OF_PERICENTER":62.3833,"MEAN_ANOMALY":297.7511,"EPHEMERIS_TYPE":0,"CLASSIFICATION_TYPE":"U","NORAD_CAT_ID":55164,"ELEMENT_SET_NO":999,"REV_AT_EPOCH":15257,"BSTAR":-9.8036075e-5,"MEAN_MOTION_DOT":-2.5e-7,"MEAN_MOTION_DDOT":0},{"OBJECT_NAME":"ONEWEB-0624","OBJECT_ID":"2023-004AB","EPOCH":"2026-02-23T02:38:07.579680","MEAN_MOTION":13.12922475,"ECCENTRICITY":0.00019155,"INCLINATION":87.8975,"RA_OF_ASC_NODE":13.2469,"ARG_OF_PERICENTER":75.5504,"MEAN_ANOMALY":284.5837,"EPHEMERIS_TYPE":0,"CLASSIFICATION_TYPE":"U","NORAD_CAT_ID":55165,"ELEMENT_SET_NO":999,"REV_AT_EPOCH":15310,"BSTAR":0.00084104388,"MEAN_MOTION_DOT":3.17e-6,"MEAN_MOTION_DDOT":0},{"OBJECT_NAME":"ONEWEB-0625","OBJECT_ID":"2023-004AC","EPOCH":"2026-02-22T22:50:45.605472","MEAN_MOTION":13.17647692,"ECCENTRICITY":0.0001712,"INCLINATION":87.9119,"RA_OF_ASC_NODE":28.5628,"ARG_OF_PERICENTER":85.7176,"MEAN_ANOMALY":274.4152,"EPHEMERIS_TYPE":0,"CLASSIFICATION_TYPE":"U","NORAD_CAT_ID":55166,"ELEMENT_SET_NO":999,"REV_AT_EPOCH":15253,"BSTAR":-0.00020745,"MEAN_MOTION_DOT":-6.8e-7,"MEAN_MOTION_DDOT":0},{"OBJECT_NAME":"ONEWEB-0626","OBJECT_ID":"2023-004AD","EPOCH":"2026-02-22T22:36:10.471968","MEAN_MOTION":13.17647409,"ECCENTRICITY":0.0002235,"INCLINATION":87.912,"RA_OF_ASC_NODE":28.5653,"ARG_OF_PERICENTER":92.5208,"MEAN_ANOMALY":267.6179,"EPHEMERIS_TYPE":0,"CLASSIFICATION_TYPE":"U","NORAD_CAT_ID":55167,"ELEMENT_SET_NO":999,"REV_AT_EPOCH":15253,"BSTAR":-3.7789e-5,"MEAN_MOTION_DOT":-2.0e-8,"MEAN_MOTION_DDOT":0},{"OBJECT_NAME":"ONEWEB-0627","OBJECT_ID":"2023-004AE","EPOCH":"2026-02-23T03:47:13.678080","MEAN_MOTION":13.17649447,"ECCENTRICITY":0.0002004,"INCLINATION":87.9122,"RA_OF_ASC_NODE":28.5223,"ARG_OF_PERICENTER":68.0861,"MEAN_ANOMALY":292.0483,"EPHEMERIS_TYPE":0,"CLASSIFICATION_TYPE":"U","NORAD_CAT_ID":55168,"ELEMENT_SET_NO":999,"REV_AT_EPOCH":15256,"BSTAR":6.1023607e-5,"MEAN_MOTION_DOT":3.7e-7,"MEAN_MOTION_DDOT":0},{"OBJECT_NAME":"ONEWEB-0628","OBJECT_ID":"2023-004AF","EPOCH":"2026-02-23T06:40:17.808096","MEAN_MOTION":13.12443188,"ECCENTRICITY":0.00019124,"INCLINATION":87.8983,"RA_OF_ASC_NODE":13.2589,"ARG_OF_PERICENTER":58.7703,"MEAN_ANOMALY":301.3613,"EPHEMERIS_TYPE":0,"CLASSIFICATION_TYPE":"U","NORAD_CAT_ID":55169,"ELEMENT_SET_NO":999,"REV_AT_EPOCH":15309,"BSTAR":-0.00023204445,"MEAN_MOTION_DOT":-7.1e-7,"MEAN_MOTION_DDOT":0},{"OBJECT_NAME":"ONEWEB-0629","OBJECT_ID":"2023-004AG","EPOCH":"2026-02-23T05:01:18.272928","MEAN_MOTION":13.17649802,"ECCENTRICITY":0.00016226,"INCLINATION":87.9121,"RA_OF_ASC_NODE":28.5095,"ARG_OF_PERICENTER":76.2708,"MEAN_ANOMALY":283.8605,"EPHEMERIS_TYPE":0,"CLASSIFICATION_TYPE":"U","NORAD_CAT_ID":55170,"ELEMENT_SET_NO":999,"REV_AT_EPOCH":15257,"BSTAR":0.00019984257,"MEAN_MOTION_DOT":9.0e-7,"MEAN_MOTION_DDOT":0},{"OBJECT_NAME":"ONEWEB-0631","OBJECT_ID":"2023-004AH","EPOCH":"2026-02-22T14:29:03.630336","MEAN_MOTION":13.1868542,"ECCENTRICITY":0.0002351,"INCLINATION":87.9243,"RA_OF_ASC_NODE":358.1845,"ARG_OF_PERICENTER":83.7952,"MEAN_ANOMALY":276.3448,"EPHEMERIS_TYPE":0,"CLASSIFICATION_TYPE":"U","NORAD_CAT_ID":55171,"ELEMENT_SET_NO":999,"REV_AT_EPOCH":15457,"BSTAR":0.00011219,"MEAN_MOTION_DOT":5.7e-7,"MEAN_MOTION_DDOT":0},{"OBJECT_NAME":"ONEWEB-0709","OBJECT_ID":"2023-004AJ","EPOCH":"2026-02-22T23:42:49.202208","MEAN_MOTION":13.11416432,"ECCENTRICITY":0.00024753,"INCLINATION":87.8835,"RA_OF_ASC_NODE":43.7963,"ARG_OF_PERICENTER":103.2768,"MEAN_ANOMALY":256.8636,"EPHEMERIS_TYPE":0,"CLASSIFICATION_TYPE":"U","NORAD_CAT_ID":55172,"ELEMENT_SET_NO":999,"REV_AT_EPOCH":15090,"BSTAR":-0.0013404608,"MEAN_MOTION_DOT":-4.62e-6,"MEAN_MOTION_DDOT":0},{"OBJECT_NAME":"ONEWEB-0710","OBJECT_ID":"2023-004AK","EPOCH":"2026-02-22T22:04:34.241664","MEAN_MOTION":13.17649258,"ECCENTRICITY":0.0001981,"INCLINATION":87.9123,"RA_OF_ASC_NODE":28.562,"ARG_OF_PERICENTER":78.7561,"MEAN_ANOMALY":281.3793,"EPHEMERIS_TYPE":0,"CLASSIFICATION_TYPE":"U","NORAD_CAT_ID":55173,"ELEMENT_SET_NO":999,"REV_AT_EPOCH":15253,"BSTAR":2.2395e-5,"MEAN_MOTION_DOT":2.2e-7,"MEAN_MOTION_DDOT":0},{"OBJECT_NAME":"ONEWEB-0711","OBJECT_ID":"2023-004AL","EPOCH":"2026-02-23T06:20:48.560352","MEAN_MOTION":13.11415577,"ECCENTRICITY":0.00022364,"INCLINATION":87.8843,"RA_OF_ASC_NODE":43.7212,"ARG_OF_PERICENTER":67.6632,"MEAN_ANOMALY":292.4733,"EPHEMERIS_TYPE":0,"CLASSIFICATION_TYPE":"U","NORAD_CAT_ID":55174,"ELEMENT_SET_NO":999,"REV_AT_EPOCH":15090,"BSTAR":0.0015916595,"MEAN_MOTION_DOT":5.77e-6,"MEAN_MOTION_DDOT":0}]
