ONEWEB-0617             
1 55158U 23004U   26054.23220855 -.00000330  00000+0 -96763-3 0  9998
2 55158  87.8843  43.7271 0002183  81.0708 279.0667 13.11416375150922
ONEWEB-0618             
1 55159U 23004V   26054.19993296  .00006597  00000+0  38451-3 0  9999
2 55159  86.9058 223.8553 0012563   7.5503 352.5923 15.11753160165032
ONEWEB-0619             
1 55160U 23004W   26054.19490725  .00000070  00000+0  14669-3 0  9995
2 55160  87.9133  28.4777 0001604  72.3251 287.8055 13.17647986152584
ONEWEB-0620             
1 55161U 23004X   26054.22713065 -.00000600  00000+0 -17289-2 0  9996
2 55161  87.8836  43.7453 0002179  88.6381 271.4997 13.11417205150896
ONEWEB-0621             
1 55162U 23004Y   26054.25428018  .00000438  00000+0  12010-2 0  9995
2 55162  87.8842  43.7177 0001859  78.7819 281.3518 13.11417911150878
ONEWEB-0622             
1 55163U 23004Z   26054.25936634  .00000514  00000+0  14157-2 0  9993
2 55163  87.8838  43.7198 0002454  73.2292 286.9105 13.11416174150866
ONEWEB-0623             
1 55164U 23004AA  26054.18984705 -.00000025  00000+0 -98036-4 0  9997
2 55164  87.9119  28.5220 0002092  62.3833 297.7511 13.17647552152578
ONEWEB-0624             
1 55165U 23004AB  26054.10980995  .00000317  00000+0  84104-3 0  9999
2 55165  87.8975  13.2469 0001915  75.5504 284.5837 13.12922475153108
ONEWEB-0625             
1 55166U 23004AC  26053.95191673 -.00000068  00000+0 -20745-3 0  9995
2 55166  87.9119  28.5628 0001712  85.7176 274.4152 13.17647692152533
ONEWEB-0626             
1 55167U 23004AD  26053.94178787 -.00000002  00000+0 -37789-4 0  9991
2 55167  87.9120  28.5653 0002235  92.5208 267.6179 13.17647409152536
ONEWEB-0627             
1 55168U 23004AE  26054.15779720  .00000037  00000+0  61024-4 0  9995
2 55168  87.9122  28.5223 0002004  68.0861 292.0483 13.17649447152566
ONEWEB-0628             
1 55169U 23004AF  26054.27798389 -.00000071  00000+0 -23204-3 0  9998
2 55169  87.8983  13.2589 0001912  58.7703 301.3613 13.12443188153092
ONEWEB-0629             
1 55170U 23004AG  26054.20923927  .00000090  00000+0  19984-3 0  9990
2 55170  87.9121  28.5095 0001622  76.2708 283.8605 13.17649802152571
ONEWEB-0631             
1 55171U 23004AH  26053.60351424  .00000057  00000+0  11219-3 0  9997
2 55171  87.9243 358.1845 0002351  83.7952 276.3448 13.18685420154577
ONEWEB-0709             
1 55172U 23004AJ  26053.98806947 -.00000462  00000+0 -13405-2 0  9994
2 55172  87.8835  43.7963 0002475 103.2768 256.8636 13.11416432150905
ONEWEB-0710             
1 55173U 23004AK  26053.91984076  .00000022  00000+0  22395-4 0  9998
2 55173  87.9123  28.5620 0001981  78.7561 281.3793 13.17649258152534
ONEWEB-0711             
1 55174U 23004AL  26054.26445093  .00000577  00000+0  15917-2 0  9994
2 55174  87.8843  43.7212 0002236  67.6632 292.4733 13.11415577150904
